#aV2023  6  7  0  0  0.00000000     288 DD+AD WGS84 FIT  NGA
## 2265 259200.00000000   300.00000000 60102 0.0000000000000
+   32     1  2  3  4  5  6  7  8  9 10 11 12 13 14 15 16 17
+         18 19 20 21 22 23 24 25 26 27 28 29 30 31 32  0  0
+          0  0  0  0  0  0  0  0  0  0  0  0  0  0  0  0  0
+          0  0  0  0  0  0  0  0  0  0  0  0  0  0  0  0  0
+          0  0  0  0  0  0  0  0  0  0  0  0  0  0  0  0  0
++         2  2  2  2  2  2  2  2  2  2  2  2  2  2  2  2  2
++         2  2  2  2  2  2  2  2  2  2  2  2  2  2  2  0  0
++         0  0  0  0  0  0  0  0  0  0  0  0  0  0  0  0  0
++         0  0  0  0  0  0  0  0  0  0  0  0  0  0  0  0  0
++         0  0  0  0  0  0  0  0  0  0  0  0  0  0  0  0  0
%c cc cc ccc ccc cccc cccc cccc cccc ccccc ccccc ccccc ccccc
%c cc cc ccc ccc cccc cccc cccc cccc ccccc ccccc ccccc ccccc
%f  0.0000000  0.000000000  0.00000000000  0.000000000000000
%f  0.0000000  0.000000000  0.00000000000  0.000000000000000
%i    0    0    0    0      0      0      0      0         0
%i    0    0    0    0      0      0      0      0         0
/*      NGA, ST. LOUIS,MO.                                  
/*   EPHEMERIS COMPUTED FROM 2 DAYS OF DATA                 
/*   EPOCHA v8 SMOOTHER                                     
/*   G2139 IERS2010 SATIGS SATAPC                           
*  2023  6  7  6 45  0.00000000
P  1 -19632.129049 -14384.057948 -11387.140965    179.972386                    
V  1  13480.192484   3118.665550 -27681.605192     -0.024723                    
P  2 -14420.144615 -14810.494632 -16372.282231   -588.167639                    
V  2  21440.234101   3094.544259 -20768.664888      0.040799                    
P  3 -12661.817508 -20107.617952  11856.082004   -278.902449                    
V  3  -1540.334150 -15222.657902 -27036.879693      0.129139                    
P  4 -12486.680926  -9112.398785  21621.138906     61.669458                    
V  4  20567.810575 -18114.727149   4134.429038      0.101802                    
P  5   4700.119267  25842.905143   3311.794909   -130.154346                    
V  5  -3798.496364  -3558.037162  31587.734210     -0.014544                    
P  6 -17293.212864   7440.300295  18834.809639    586.159320                    
V  6 -22256.494117  -8170.935776 -17165.856505     -0.015515                    
P  7 -25908.003820  -6329.605897  -2424.397427    158.791061                    
V  7  -2602.142538  -3712.802412  31003.374261     -0.098746                    
P  8  -1926.817875 -17541.666128 -19801.926290   -126.172762                    
V  8  18945.311313 -16542.631233  13244.662421     -0.018205                    
P  9 -19384.558932    964.928258  18077.649944   -141.491991                    
V  9  15489.092367 -17215.773340  17416.281120      0.087564                    
P 10  12418.143667  -9608.644186 -21190.698133    -40.127096                    
V 10   6762.013321  26492.422278  -8285.342327     -0.015859                    
P 11  -2020.198059  15240.724866  21669.371549   -225.861671                    
V 11 -25896.325749  -9195.998370   4014.655441     -0.147530                    
P 12   9908.070532  22800.843012   9182.834294   -385.524716                    
V 12   -577.256309  12251.613928 -28844.638315     -0.046971                    
P 13  -7275.476984  19187.319894 -16924.361531    530.626646                    
V 13 -18389.398671  10707.568490  20459.883153      0.051824                    
P 14 -14400.270377   6272.869229 -21389.954801     82.515139                    
V 14  -5636.340918 -26667.993893  -4175.371119      0.124989                    
P 15   4900.584380  17341.689108 -19896.318285     46.584122                    
V 15 -16606.237830  18008.252573  12145.216384      0.034958                    
P 16    916.715060 -25486.501512   6209.062216   -493.923196                    
V 16   4078.620320   7906.215939  30811.352254      0.037153                    
P 17 -22250.204414  13405.073718  -5379.180244    717.553628                    
V 17   4244.317783  -6425.993871 -30998.987500      0.012813                    
P 18  25582.255538   4006.591667  -6278.893157   -297.726486                    
V 18   6831.924723   4568.157436  30605.910230     -0.152251                    
P 19 -20315.257001  16708.986435   1910.308547    327.256665                    
V 19  -3789.443223   -546.526505 -32108.895236      0.051189                    
P 20   -193.044642  23450.840544  12679.543048    429.363281                    
V 20  -8339.453413 -13874.310862  25414.108109     -0.020796                    
P 21 -13432.130830 -15149.098356 -17078.418760    153.306912                    
V 21  22201.254604   3476.143547 -19067.093818     -0.003018                    
P 22  17750.706169 -18914.295952   5747.901631    493.945580                    
V 22   7012.333870  -1989.688839 -30774.366877      0.060814                    
P 23  15759.329651   4012.386151 -21026.635873     30.885441                    
V 23   5990.429065  25958.970897   9289.312479      0.034946                    
P 24  16757.651657  14916.781721 -14889.146222   -216.238781                    
V 24 -18266.258263  -1634.690342 -22328.352964     -0.132924                    
P 25  15591.770479  12587.715456  17251.001501    448.142981                    
V 25   3488.102100  22236.862689 -18773.598789      0.025645                    
P 26   7148.195676 -19145.469716  16665.226326    239.555810                    
V 26   8581.346593  19981.394983  19480.880433     -0.007632                    
P 27   9177.356744 -21024.688304 -13271.492279     21.509507                    
V 27  13711.906054  -9617.740662  25597.214594     -0.077329                    
P 28  18746.936428  -7378.965416  17283.504528     82.459321                    
V 28  20754.962241   7467.705257 -19302.868400      0.014658                    
P 29  17897.809718   2591.636725  19431.287063   -602.023085                    
V 29 -18731.435884  16160.035227  14964.579025     -0.012362                    
P 30 -23497.348892   2030.291958 -12354.276233   -512.597646                    
V 30 -14215.363121  -7505.260389  25297.985681      0.023837                    
P 31   7743.360063 -13421.591463  21427.658463   -217.653187                    
V 31  26116.359473   8962.966784  -3373.590990     -0.007881                    
P 32  20753.378308 -15938.044750  -3704.383064   -494.623478                    
V 32  -1552.977976   5583.652467 -31389.576312     -0.086435                    
EOF
